STARLINK-2672           
1 48650U 21044N   26068.44584783  .00002825  00000+0  10744-3 0  9994
2 48650  53.1622 115.0749 0001277  98.0770 262.0376 15.30208377263787
TEVEL2-4                
1 63213U 25052D   26068.69417973  .00020990  00000+0  70363-3 0  9998
2 63213  97.4009 325.1237 0004733  95.3468 264.8313 15.30925813 54879
